QIANFAN-89              
1 63175U 25046S   25209.63466264  .00000150  00000+0  21334-3 0  9995
2 63175  88.9857 334.1611 0017610 156.7288 203.4664 13.50961952 28893
QIANFAN-90              
1 63176U 25046T   25209.58938299  .00000159  00000+0  22700-3 0  9999
2 63176  88.9858 334.1379 0014612 154.0582 206.1305 13.50960442 28900
